NORAD_CAT_ID,OBJECT_NAME,OBJECT_TYPE,EPOCH,MEAN_MOTION,ECCENTRICITY,INCLINATION,RA_OF_ASC_NODE,ARG_OF_PERICENTER,MEAN_ANOMALY,BSTAR,MEAN_MOTION_DOT,MEAN_MOTION_DDOT,TLE_LINE0,TLE_LINE1,TLE_LINE2,SEMIMAJOR_AXIS,PERIOD,APOGEE,PERIGEE,DECAYED
53708.0,STARLINK-4694,PAYLOAD,2022-12-24 10:00:00,15.42156937,0.0001636,53.2175,89.0943,35.2129,352.1315,-0.028773,-0.01143944,0.0,0 STARLINK-4694,1 53708U 22107J   22358.41667824 -.01143944  00000-0 -28773-1 0  9999,2 53708  53.2175  89.0943 0001636  35.2129 352.1315 15.42156937 17460,6817.882,93.376,440.862,438.631,0.0
53708.0,STARLINK-4694,PAYLOAD,2022-12-24 14:00:01,15.41751562,0.0001459,53.2174,88.3085,57.1939,175.8353,-0.029207,-0.01145287,0.0,0 STARLINK-4694,1 53708U 22107J   22358.58334491 -.01145287  00000-0 -29207-1 0  9993,2 53708  53.2174  88.3085 0001459  57.1939 175.8353 15.41751562  1305,6819.0769999999975,93.4,441.937,439.947,0.0
53708.0,STARLINK-4694,PAYLOAD,2022-12-24 22:00:00,15.40938493,0.0001518,53.2171,86.7349,45.4813,238.1883,-0.03007,-0.01147259,0.0,0 STARLINK-4694,1 53708U 22107J   22358.91667824 -.01147259  00000-0 -30070-1 0  9990,2 53708  53.2171  86.7349 0001518  45.4813 238.1883 15.40938493  1304,6821.475,93.45,444.376,442.305,0.0
53708.0,STARLINK-4694,PAYLOAD,2022-12-25 08:00:01,15.39919244,0.0001786999999999,53.2173,84.7711,35.2957,40.2997,-0.031,-0.01143668,0.0,0 STARLINK-4694,1 53708U 22107J   22359.33334491 -.01143668  00000-0 -31000-1 0  9992,2 53708  53.2173  84.7711 0001787  35.2957  40.2997 15.39919244 17600,6824.485,93.511,447.569,445.13,0.0
53708.0,STARLINK-4694,PAYLOAD,2022-12-25 14:00:01,15.39322969,0.0001446,53.2175,83.5964,50.7339,331.2755,-0.032229,-0.0116374,0.0,0 STARLINK-4694,1 53708U 22107J   22359.58334491 -.01163740  00000-0 -32229-1 0  9996,2 53708  53.2175  83.5964 0001446  50.7339 331.2755 15.39322969  1304,6826.246999999999,93.548,449.099,447.125,0.0
53708.0,STARLINK-4694,PAYLOAD,2022-12-26 00:00:00,15.38287497,0.000172,53.2175,81.6364,41.4133,130.0852,-0.032496,-0.01136615,0.0,0 STARLINK-4694,1 53708U 22107J   22360.00001157 -.01136615  00000-0 -32496-1 0  9992,2 53708  53.2175  81.6364 0001720  41.4133 130.0852 15.38287497  1309,6829.31,93.611,452.35,450.0,0.0
53708.0,STARLINK-4694,PAYLOAD,2022-12-26 06:00:00,15.37684275,0.0001941,53.2173,80.4628,33.4013,83.0478,-0.033433,-0.01145709,0.0,0 STARLINK-4694,1 53708U 22107J   22360.25001157 -.01145709  00000-0 -33433-1 0  9995,2 53708  53.2173  80.4628 0001941  33.4013  83.0478 15.37684275 17740,6831.096,93.647,454.287,451.635,0.0
53708.0,STARLINK-4694,PAYLOAD,2022-12-26 14:00:01,15.36867449,0.0001698,53.2176,78.9016,44.9612,117.2394,-0.034222,-0.01142174,0.0,0 STARLINK-4694,1 53708U 22107J   22360.58334491 -.01142174  00000-0 -34222-1 0  9991,2 53708  53.2176  78.9016 0001698  44.9612 117.2394 15.36867449  1304,6833.516,93.697,456.542,454.221,0.0
53708.0,STARLINK-4694,PAYLOAD,2022-12-27 00:00:00,15.35847941,0.0001553,53.2175,76.9487,39.2948,268.7208,-0.035256,-0.01138711,0.0,0 STARLINK-4694,1 53708U 22107J   22361.00001157 -.01138711  00000-0 -35256-1 0  9999,2 53708  53.2175  76.9487 0001553  39.2948 268.7208 15.35847941  1302,6836.54,93.759,459.467,457.343,0.0
53708.0,STARLINK-4694,PAYLOAD,2022-12-27 06:00:00,15.35254344,0.0001828,53.2173,75.7797,40.2498,210.5114,-0.036676,-0.01160135,0.0,0 STARLINK-4694,1 53708U 22107J   22361.25001157 -.01160135  00000-0 -36676-1 0  9998,2 53708  53.2173  75.7797 0001828  40.2498 210.5114 15.35254344 17899,6838.302,93.796,461.417,458.917,0.0
53708.0,STARLINK-4694,PAYLOAD,2022-12-27 14:00:01,15.34435013,0.0001501999999999,53.2176,74.2245,48.5982,244.9819,-0.03742,-0.01153479,0.0,0 STARLINK-4694,1 53708U 22107J   22361.58334491 -.01153479  00000-0 -37420-1 0  9995,2 53708  53.2176  74.2245 0001502  48.5982 244.9819 15.34435013  1307,6840.736,93.846,463.629,461.574,0.0
53708.0,STARLINK-4694,PAYLOAD,2022-12-27 22:00:00,15.33613541,0.0001661,53.2174,72.6675,36.4308,298.9936,-0.038074,-0.01144173,0.0,0 STARLINK-4694,1 53708U 22107J   22361.91667824 -.01144173  00000-0 -38074-1 0  9998,2 53708  53.2174  72.6675 0001661  36.4308 298.9936 15.33613541  1300,6843.179,93.896,466.18,463.907,0.0
53708.0,STARLINK-4694,PAYLOAD,2022-12-28 14:00:01,15.31988856,0.0001621,53.2176,69.5643,42.6734,13.4929,-0.040195,-0.01147014,0.0,0 STARLINK-4694,1 53708U 22107J   22362.58334491 -.01147014  00000-0 -40195-1 0  9997,2 53708  53.2176  69.5643 0001621  42.6734  13.4929 15.31988856  1304,6848.016,93.995,470.991,468.771,0.0
53708.0,STARLINK-4694,PAYLOAD,2022-12-28 16:00:00,15.31774435,0.0001686999999999,53.2173,69.1764,47.0408,108.9483,-0.0398149999999999,-0.01130126,0.0,0 STARLINK-4694,1 53708U 22107J   22362.66667824 -.01130126  00000-0 -39815-1 0  9998,2 53708  53.2173  69.1764 0001687  47.0408 108.9483 15.31774435 18118,6848.655,94.009,471.675,469.365,0.0
53708.0,STARLINK-4694,PAYLOAD,2022-12-28 22:00:00,15.31184496,0.0001813,53.2174,68.0133,34.7206,60.3475,-0.041713,-0.01159448,0.0,0 STARLINK-4694,1 53708U 22107J   22362.91667824 -.01159448  00000-0 -41713-1 0  9994,2 53708  53.2174  68.0133 0001813  34.7206  60.3475 15.31184496  1304,6850.4140000000025,94.045,473.521,471.037,0.0
53708.0,STARLINK-4694,PAYLOAD,2022-12-29 08:00:01,15.30151748,0.0005952999999999,53.2175,66.0792,271.4227,320.9092,-0.042137,-0.011375,0.0,0 STARLINK-4694,1 53708U 22107J   22363.33334491 -.01137500  00000-0 -42137-1 0  9998,2 53708  53.2175  66.0792 0005953 271.4227 320.9092 15.30151748 18217,6853.496,94.108,479.441,471.281,0.0
53708.0,STARLINK-4694,PAYLOAD,2022-12-29 14:00:01,15.29577674,0.0001758,53.2174,64.9217,46.9135,123.0205,-0.044971,-0.01202533,0.0,0 STARLINK-4694,1 53708U 22107J   22363.58334491 -.01202533  00000-0 -44971-1 0  9992,2 53708  53.2174  64.9217 0001758  46.9135 123.0205 15.29577674  1305,6855.2109999999975,94.144,478.281,475.871,0.0
53708.0,STARLINK-4694,PAYLOAD,2022-12-29 16:00:00,15.29335967,0.0001564999999999,53.2172,64.5351,48.0297,221.0077,-0.043122,-0.01133827,0.0,0 STARLINK-4694,1 53708U 22107J   22363.66667824 -.01133827  00000-0 -43122-1 0  9996,2 53708  53.2172  64.5351 0001565  48.0297 221.0077 15.29335967 18273,6855.933000000001,94.159,478.871,476.725,0.0
53708.0,STARLINK-4694,PAYLOAD,2022-12-30 14:00:01,15.2711418,0.0001489,53.2174,60.2961,56.1814,218.7455,-0.0471399999999999,-0.01170991,0.0,0 STARLINK-4694,1 53708U 22107J   22364.58334491 -.01170991  00000-0 -47140-1 0  9996,2 53708  53.2174  60.2961 0001489  56.1814 218.7455 15.27114180  1304,6862.581,94.296,485.468,483.424,0.0
53708.0,STARLINK-4694,PAYLOAD,2022-12-30 16:00:00,15.26894994,0.0001402,53.2172,59.9109,47.1265,326.1595,-0.046483,-0.01133719,0.0,0 STARLINK-4694,1 53708U 22107J   22364.66667824 -.01133719  00000-0 -46483-1 0  9990,2 53708  53.2172  59.9109 0001402  47.1265 326.1595 15.26894994 18423,6863.238,94.309,486.065,484.141,0.0
53708.0,STARLINK-4694,PAYLOAD,2022-12-31 14:00:01,15.24663528,0.0001398,53.2172,55.6878,55.0346,316.0783,-0.05016,-0.01157808,0.0,0 STARLINK-4694,1 53708U 22107J   22365.58334491 -.01157808  00000-0 -50160-1 0  9995,2 53708  53.2172  55.6878 0001398  55.0346 316.0783 15.24663528  1302,6869.933000000001,94.447,492.758,490.838,0.0
53708.0,STARLINK-4694,PAYLOAD,2022-12-31 16:00:00,15.24453212,0.0001525,53.2171,55.3039,55.3944,53.34,-0.049999,-0.01147667,0.0,0 STARLINK-4694,1 53708U 22107J   22365.66667824 -.01147667  00000-0 -49999-1 0  9993,2 53708  53.2171  55.3039 0001525  55.3944  53.3400 15.24453212 18577,6870.565,94.46,493.478,491.382,0.0
53708.0,STARLINK-4694,PAYLOAD,2022-12-31 22:00:00,15.23855769,0.000152,53.2173,54.1538,43.0314,358.1848,-0.051836,-0.01167066,0.0,0 STARLINK-4694,1 53708U 22107J   22365.91667824 -.01167066  00000-0 -51836-1 0  9999,2 53708  53.2173  54.1538 0001520  43.0314 358.1848 15.23855769  1307,6872.36,94.497,495.27,493.181,0.0
53708.0,STARLINK-4694,PAYLOAD,2023-01-01 14:00:01,15.2222117,0.0001636,53.2171,51.0967,49.7323,48.7618,-0.05385,-0.0115569,0.0,0 STARLINK-4694,1 53708U 22107J   23001.58334491 -.01155690  00000-0 -53850-1 0  9999,2 53708  53.2171  51.0967 0001636  49.7323  48.7618 15.22221170  1307,6877.279,94.599,500.27,498.019,0.0
53708.0,STARLINK-4694,PAYLOAD,2023-01-01 16:00:00,15.22012006,0.0001621,53.2171,50.7142,55.1406,140.2413,-0.053796,-0.01148018,0.0,0 STARLINK-4694,1 53708U 22107J   23001.66667824 -.01148018  00000-0 -53796-1 0  9992,2 53708  53.2171  50.7142 0001621  55.1406 140.2413 15.22012006 18726,6877.909000000002,94.612,500.889,498.66,0.0
53708.0,STARLINK-4694,PAYLOAD,2023-01-02 00:00:00,15.21198232,0.000158,53.2173,49.1863,52.583,169.7268,-0.0551179999999999,-0.01148235,0.0,0 STARLINK-4694,1 53708U 22107J   23002.00001157 -.01148235  00000-0 -55118-1 0  9993,2 53708  53.2173  49.1863 0001580  52.5830 169.7268 15.21198232  1301,6880.361999999999,94.662,503.314,501.14,0.0
53708.0,STARLINK-4694,PAYLOAD,2023-01-02 14:00:01,15.19777406,0.0001657,53.2171,46.5226,53.6525,123.4228,-0.057636,-0.01151356,0.0,0 STARLINK-4694,1 53708U 22107J   23002.58334491 -.01151356  00000-0 -57636-1 0  9991,2 53708  53.2171  46.5226 0001657  53.6525 123.4228 15.19777406 18866,6884.65,94.751,507.656,505.374,0.0
53708.0,STARLINK-4694,PAYLOAD,2023-01-02 22:00:00,15.18969438,0.0001551999999999,53.2172,45.0001,52.7285,148.583,-0.059493,-0.01160001,0.0,0 STARLINK-4694,1 53708U 22107J   23002.91667824 -.01160001  00000-0 -59493-1 0  9997,2 53708  53.2172  45.0001 0001552  52.7285 148.5830 15.18969438  1304,6887.090999999999,94.801,510.025,507.887,0.0
53708.0,STARLINK-4694,PAYLOAD,2023-01-03 14:00:01,15.17338133,0.0001588999999999,53.217,41.9659,56.1934,190.66,-0.061996,-0.01153512,0.0,0 STARLINK-4694,1 53708U 22107J   23003.58334491 -.01153512  00000-0 -61996-1 0  9992,2 53708  53.2170  41.9659 0001589  56.1934 190.6600 15.17338133  1309,6892.026,94.903,514.986,512.7959999999998,0.0
